GLOBALSTAR M045         
1 25676U 99019A   24209.34774865 -.00000048  00000+0  40359-3 0  9991
2 25676  51.9958 151.1154 0000706 340.0011 161.3797 12.27042197153519
GLOBALSTAR M019         
1 25677U 99019B   24209.52414207 -.00000115  00000+0 -25787-3 0  9997
2 25677  51.9865 258.1390 0000741  49.2249  97.7510 12.13861564145717
GLOBALSTAR M044         
1 25678U 99019C   24209.84484166 -.00000059  00000+0  34367-3 0  9994
2 25678  51.9947 168.0281 0006194 131.7337 242.7741 11.90235647132704
GLOBALSTAR M042         
1 25679U 99019D   24209.87285677 -.00000059  00000+0  31186-3 0  9990
2 25679  51.9991 246.4913 0002683 350.3220 180.3488 12.22065910145604
GLOBALSTAR M025         
1 25770U 99031A   24209.90739785 -.00000053  00000+0  44502-3 0  9994
2 25770  51.9779 190.4856 0001793 321.8212  74.2708 11.22551576445290
GLOBALSTAR M049         
1 25771U 99031B   24209.69516414 -.00000030  00000+0  12212-2 0  9990
2 25771  51.9830 209.4336 0002897 193.6543 166.4176 11.12108138 81325
GLOBALSTAR M047         
1 25772U 99031C   24209.79469618 -.00000073  00000+0 -10154-3 0  9997
2 25772  51.9799 237.1714 0016046  66.0020 294.2464 11.31921416434372
GLOBALSTAR M052         
1 25773U 99031D   24209.82489361 -.00000084  00000+0 -61836-3 0  9994
2 25773  51.9898 322.3796 0002184   5.4888 138.8094 11.15052105442325
